[{"OBJECT_NAME":"STARLINK-1665","OBJECT_ID":"2020-062AH","EPOCH":"2026-03-10T00:00:02.999808","MEAN_MOTION":15.63814753,"ECCENTRICITY":0.00018219,"INCLINATION":53.043,"RA_OF_ASC_NODE":335.34,"ARG_OF_PERICENTER":283.6331,"MEAN_ANOMALY":290.7925,"EPHEMERIS_TYPE":0,"CLASSIFICATION_TYPE":"U","NORAD_CAT_ID":46356,"ELEMENT_SET_NO":999,"REV_AT_EPOCH":589,"BSTAR":0.0017153048,"MEAN_MOTION_DOT":0.0016659,"MEAN_MOTION_DDOT":0},{"OBJECT_NAME":"STARLINK-2093","OBJECT_ID":"2021-005AB","EPOCH":"2026-03-10T00:00:02.999808","MEAN_MOTION":15.65243477,"ECCENTRICITY":0.00037849,"INCLINATION":53.0522,"RA_OF_ASC_NODE":43.8168,"ARG_OF_PERICENTER":113.3388,"MEAN_ANOMALY":55.421,"EPHEMERIS_TYPE":0,"CLASSIFICATION_TYPE":"U","NORAD_CAT_ID":47374,"ELEMENT_SET_NO":999,"REV_AT_EPOCH":589,"BSTAR":0.00016958148,"MEAN_MOTION_DOT":0.00016616,"MEAN_MOTION_DDOT":0}]
